{
    "links": {
        "self": "http://www.neowsapp.com/rest/v1/neo/3601573?api_key=iIulBulltgU6a56xZRHN4H3l9WmuAYTsLGpBGhQ2"
    },
    "id": "3601573",
    "neo_reference_id": "3601573",
    "name": "(2012 FJ15)",
    "designation": "2012 FJ15",
    "nasa_jpl_url": "http://ssd.jpl.nasa.gov/sbdb.cgi?sstr=3601573",
    "absolute_magnitude_h": 22.8,
    "estimated_diameter": {
        "kilometers": {
            "estimated_diameter_min": 0.0732073989,
            "estimated_diameter_max": 0.1636967205
        },
        "meters": {
            "estimated_diameter_min": 73.2073989347,
            "estimated_diameter_max": 163.696720474
        },
        "miles": {
            "estimated_diameter_min": 0.0454889547,
            "estimated_diameter_max": 0.1017163949
        },
        "feet": {
            "estimated_diameter_min": 240.181762721,
            "estimated_diameter_max": 537.0627483999
        }
    },
    "is_potentially_hazardous_asteroid": false,
    "close_approach_data": [
        {
            "close_approach_date": "2012-03-09",
            "close_approach_date_full": "2012-Mar-09 12:33",
            "epoch_date_close_approach": 1331296380000,
            "relative_velocity": {
                "kilometers_per_second": "20.2418142782",
                "kilometers_per_hour": "72870.5314015733",
                "miles_per_hour": "45278.9143589387"
            },
            "miss_distance": {
                "astronomical": "0.0870995757",
                "lunar": "33.8817349473",
                "kilometers": "13029911.002623759",
                "miles": "8096411.2614515142"
            },
            "orbiting_body": "Earth"
        }
    ],
    "orbital_data": {
        "orbit_id": "6",
        "orbit_determination_date": "2017-04-06 08:50:25",
        "first_observation_date": "2012-03-22",
        "last_observation_date": "2012-03-29",
        "data_arc_in_days": 7,
        "observations_used": 31,
        "orbit_uncertainty": "9",
        "minimum_orbit_intersection": ".0215712",
        "jupiter_tisserand_invariant": "3.121",
        "epoch_osculation": "2456010.5",
        "eccentricity": ".7028660370146917",
        "semi_major_axis": "2.418948936714876",
        "inclination": "1.492654531529764",
        "ascending_node_longitude": "106.7145199102669",
        "orbital_period": "1374.16371839772",
        "perihelion_distance": ".7187518838251887",
        "perihelion_argument": "346.0882870456112",
        "aphelion_distance": "4.119145989604563",
        "perihelion_time": "2455952.983152870715",
        "mean_anomaly": "15.06812084275224",
        "mean_motion": ".2619775178024358",
        "equinox": "J2000",
        "orbit_class": {
            "orbit_class_type": "APO",
            "orbit_class_description": "Near-Earth asteroid orbits which cross the Earth’s orbit similar to that of 1862 Apollo",
            "orbit_class_range": "a (semi-major axis) > 1.0 AU; q (perihelion) < 1.017 AU"
        }
    },
    "is_sentry_object": false
}